GLOBAL-2                
1 43812U 18099BG  26068.69955396  .00003970  00000+0  26145-3 0  9998
2 43812  97.3697 109.3280 0007454 127.1924 232.9986 15.08046936396919
STARLINK-3261           
1 50193U 21125AP  26068.71101257  .00003251  00000+0  22228-3 0  9994
2 50193  53.2156 239.0268 0001058  81.2953 278.8159 15.08834454236782
